{
  "type": "FeatureCollection",
  "features": [
    {
      "type": "Feature",
      "geometry": {
        "type": "Point",
        "coordinates": [
          81.2939594952393,
          21.26209744333874
        ]
      },
      "properties": {
        "name": "Recommended Pond Site",
        "type": "pond",
        "nearest_river_distance_m": 180.3
      }
    },
    {
      "type": "Feature",
      "geometry": {
        "type": "Polygon",
        "coordinates": [
          [
            [
              81.2940944952393,
              21.261152443338737
            ],
            [
              81.2932844952393,
              21.261152443338737
            ],
            [
              81.2932844952393,
              21.261422443338738
            ],
            [
              81.2930144952393,
              21.261422443338738
            ],
            [
              81.2930144952393,
              21.26196244333874
            ],
            [
              81.2932844952393,
              21.26196244333874
            ],
            [
              81.2932844952393,
              21.261692443338738
            ],
            [
              81.2935544952393,
              21.261692443338738
            ],
            [
              81.2935544952393,
              21.26196244333874
            ],
            [
              81.2940944952393,
              21.26196244333874
            ],
            [
              81.2940944952393,
              21.261152443338737
            ]
          ]
        ]
      },
      "properties": {
        "name": "Catchment Boundary",
        "type": "catchment",
        "area_sq_km": 0.0084
      }
    }
  ]
}